{"type": "FeatureCollection", "features": [ {"type": "Feature", "properties": {"norad_id": 30096, "name": "FENGYUN 1C DEB", "group": "fengyun-1c-debris", "lat": -2.4788864534284225, "lon": -112.74936004472977, "alt_km": 749.2909106015022, "timestamp": "2025-12-14T07:33:19.751298+00:00", "meta": {"OBJECT_NAME": "FENGYUN 1C DEB", "OBJECT_ID": "1999-025QZ", "EPOCH": "2025-12-13T03:51:48.570048", "MEAN_MOTION": 14.31692507, "ECCENTRICITY": 0.00791582, "INCLINATION": 99.1478, "RA_OF_ASC_NODE": 66.4351, "ARG_OF_PERICENTER": 231.1918, "MEAN_ANOMALY": 128.2177, "EPHEMERIS_TYPE": 0, "CLASSIFICATION_TYPE": "U", "NORAD_CAT_ID": 30096, "ELEMENT_SET_NO": 999, "REV_AT_EPOCH": 98552, "BSTAR": 0.00048933314, "MEAN_MOTION_DOT": 1.302e-05, "MEAN_MOTION_DDOT": 0}, "tle": {"line1": "1 30096U 99025QZ  25347.16097882  .00001302  00000+0  48933-3 0  9990", "line2": "2 30096  99.1478  66.4351 0079158 231.1918 128.2177 14.31692507985523"}}, "geometry": {"type": "Point", "coordinates": [-112.74936004472977, -2.4788864534284225]}}, {"type": "Feature", "properties": {"norad_id": 30099, "name": "FENGYUN 1C DEB", "group": "fengyun-1c-debris", "lat": 31.95977915830865, "lon": 55.20148849067838, "alt_km": 842.2833039468087, "timestamp": "2025-12-14T07:33:19.751310+00:00", "meta": {"OBJECT_NAME": "FENGYUN 1C DEB", "OBJECT_ID": "1999-025RC", "EPOCH": "2025-12-13T04:43:11.424864", "MEAN_MOTION": 14.25938081, "ECCENTRICITY": 0.00611227, "INCLINATION": 98.5407, "RA_OF_ASC_NODE": 59.4914, "ARG_OF_PERICENTER": 243.3755, "MEAN_ANOMALY": 172.1223, "EPHEMERIS_TYPE": 0, "CLASSIFICATION_TYPE": "U", "NORAD_CAT_ID": 30099, "ELEMENT_SET_NO": 999, "REV_AT_EPOCH": 98196, "BSTAR": 0.00044373646, "MEAN_MOTION_DOT": 1.035e-05, "MEAN_MOTION_DDOT": 0}, "tle": {"line1": "1 30099U 99025RC  25347.19666001  .00001035  00000+0  44374-3 0  9999", "line2": "2 30099  98.5407  59.4914 0061122 243.3755 172.1223 14.25938081981961"}}, "geometry": {"type": "Point", "coordinates": [55.20148849067838, 31.95977915830865]}}, {"type": "Feature", "properties": {"norad_id": 30102, "name": "FENGYUN 1C DEB", "group": "fengyun-1c-debris", "lat": -12.824466573741422, "lon": 174.09106857655613, "alt_km": 919.8294597584209, "timestamp": "2025-12-14T07:33:19.751321+00:00", "meta": {"OBJECT_NAME": "FENGYUN 1C DEB", "OBJECT_ID": "1999-025RF", "EPOCH": "2025-12-13T12:39:56.083680", "MEAN_MOTION": 14.22132189, "ECCENTRICITY": 0.01416328, "INCLINATION": 98.3792, "RA_OF_ASC_NODE": 355.2656, "ARG_OF_PERICENTER": 357.9305, "MEAN_ANOMALY": 128.1067, "EPHEMERIS_TYPE": 0, "CLASSIFICATION_TYPE": "U", "NORAD_CAT_ID": 30102, "ELEMENT_SET_NO": 999, "REV_AT_EPOCH": 97969, "BSTAR": 0.00049699232, "MEAN_MOTION_DOT": 1.178e-05, "MEAN_MOTION_DDOT": 0}, "tle": {"line1": "1 30102U 99025RF  25347.52773245  .00001178  00000+0  49699-3 0  9993", "line2": "2 30102  98.3792 355.2656 0141632 357.9305 128.1067 14.22132189979695"}}, "geometry": {"type": "Point", "coordinates": [174.09106857655613, -12.824466573741422]}}, {"type": "Feature", "properties": {"norad_id": 30103, "name": "FENGYUN 1C DEB", "group": "fengyun-1c-debris", "lat": -29.4826529020875, "lon": 144.59404921213508, "alt_km": 818.0457963240242, "timestamp": "2025-12-14T07:33:19.751331+00:00", "meta": {"OBJECT_NAME": "FENGYUN 1C DEB", "OBJECT_ID": "1999-025RG", "EPOCH": "2025-12-13T12:35:08.306880", "MEAN_MOTION": 14.24861024, "ECCENTRICITY": 0.00641496, "INCLINATION": 99.2451, "RA_OF_ASC_NODE": 329.0458, "ARG_OF_PERICENTER": 117.6535, "MEAN_ANOMALY": 359.2618, "EPHEMERIS_TYPE": 0, "CLASSIFICATION_TYPE": "U", "NORAD_CAT_ID": 30103, "ELEMENT_SET_NO": 999, "REV_AT_EPOCH": 97930, "BSTAR": 0.00066395366, "MEAN_MOTION_DOT": 1.535e-05, "MEAN_MOTION_DDOT": 0}, "tle": {"line1": "1 30103U 99025RG  25347.52440170  .00001535  00000+0  66395-3 0  9991", "line2": "2 30103  99.2451 329.0458 0064149 117.6535 359.2618 14.24861024979306"}}, "geometry": {"type": "Point", "coordinates": [144.59404921213508, -29.4826529020875]}}, {"type": "Feature", "properties": {"norad_id": 30104, "name": "FENGYUN 1C DEB", "group": "fengyun-1c-debris", "lat": 58.67131430458776, "lon": 171.32961950756894, "alt_km": 761.9551955896923, "timestamp": "2025-12-14T07:33:19.751341+00:00", "meta": {"OBJECT_NAME": "FENGYUN 1C DEB", "OBJECT_ID": "1999-025RH", "EPOCH": "2025-12-13T13:00:22.843584", "MEAN_MOTION": 14.25669911, "ECCENTRICITY": 0.00740091, "INCLINATION": 98.3593, "RA_OF_ASC_NODE": 184.5711, "ARG_OF_PERICENTER": 105.8003, "MEAN_ANOMALY": 310.0595, "EPHEMERIS_TYPE": 0, "CLASSIFICATION_TYPE": "U", "NORAD_CAT_ID": 30104, "ELEMENT_SET_NO": 999, "REV_AT_EPOCH": 97904, "BSTAR": 0.00091330857, "MEAN_MOTION_DOT": 2.188e-05, "MEAN_MOTION_DDOT": 0}, "tle": {"line1": "1 30104U 99025RH  25347.54193106  .00002188  00000+0  91331-3 0  9991", "line2": "2 30104  98.3593 184.5711 0074009 105.8003 310.0595 14.25669911979047"}}, "geometry": {"type": "Point", "coordinates": [171.32961950756894, 58.67131430458776]}}, {"type": "Feature", "properties": {"norad_id": 30105, "name": "FENGYUN 1C DEB", "group": "fengyun-1c-debris", "lat": 32.26101957666877, "lon": 159.7959332687461, "alt_km": 785.6003366715286, "timestamp": "2025-12-14T07:33:19.751352+00:00", "meta": {"OBJECT_NAME": "FENGYUN 1C DEB", "OBJECT_ID": "1999-025RJ", "EPOCH": "2025-12-13T12:18:07.078752", "MEAN_MOTION": 14.2140059, "ECCENTRICITY": 0.01997839, "INCLINATION": 98.5936, "RA_OF_ASC_NODE": 333.5372, "ARG_OF_PERICENTER": 71.7322, "MEAN_ANOMALY": 290.5483, "EPHEMERIS_TYPE": 0, "CLASSIFICATION_TYPE": "U", "NORAD_CAT_ID": 30105, "ELEMENT_SET_NO": 999, "REV_AT_EPOCH": 97773, "BSTAR": 0.0004742096, "MEAN_MOTION_DOT": 1.224e-05, "MEAN_MOTION_DDOT": 0}, "tle": {"line1": "1 30105U 99025RJ  25347.51258193  .00001224  00000+0  47421-3 0  9998", "line2": "2 30105  98.5936 333.5372 0199783  71.7322 290.5483 14.21400590977736"}}, "geometry": {"type": "Point", "coordinates": [159.7959332687461, 32.26101957666877]}}, {"type": "Feature", "properties": {"norad_id": 30106, "name": "FENGYUN 1C DEB", "group": "fengyun-1c-debris", "lat": 49.90771627202432, "lon": 86.60072421830641, "alt_km": 593.2900684107608, "timestamp": "2025-12-14T07:33:19.751362+00:00", "meta": {"OBJECT_NAME": "FENGYUN 1C DEB", "OBJECT_ID": "1999-025RK", "EPOCH": "2025-12-12T18:05:47.321088", "MEAN_MOTION": 14.85157411, "ECCENTRICITY": 0.00471596, "INCLINATION": 98.9229, "RA_OF_ASC_NODE": 254.0978, "ARG_OF_PERICENTER": 197.7791, "MEAN_ANOMALY": 231.5122, "EPHEMERIS_TYPE": 0, "CLASSIFICATION_TYPE": "U", "NORAD_CAT_ID": 30106, "ELEMENT_SET_NO": 999, "REV_AT_EPOCH": 98545, "BSTAR": 0.0059076455, "MEAN_MOTION_DOT": 0.00051893, "MEAN_MOTION_DDOT": 0}, "tle": {"line1": "1 30106U 99025RK  25346.75401992  .00051893  00000+0  59076-2 0  9996", "line2": "2 30106  98.9229 254.0978 0047159 197.7791 231.5122 14.85157411985457"}}, "geometry": {"type": "Point", "coordinates": [86.60072421830641, 49.90771627202432]}}, {"type": "Feature", "properties": {"norad_id": 30107, "name": "FENGYUN 1C DEB", "group": "fengyun-1c-debris", "lat": 15.246078197656306, "lon": 42.78659027787824, "alt_km": 866.629355846696, "timestamp": "2025-12-14T07:33:19.751372+00:00", "meta": {"OBJECT_NAME": "FENGYUN 1C DEB", "OBJECT_ID": "1999-025RL", "EPOCH": "2025-12-13T14:30:18.064800", "MEAN_MOTION": 14.14422872, "ECCENTRICITY": 0.01262712, "INCLINATION": 98.8472, "RA_OF_ASC_NODE": 44.5158, "ARG_OF_PERICENTER": 273.1441, "MEAN_ANOMALY": 85.5291, "EPHEMERIS_TYPE": 0, "CLASSIFICATION_TYPE": "U", "NORAD_CAT_ID": 30107, "ELEMENT_SET_NO": 999, "REV_AT_EPOCH": 97573, "BSTAR": 0.00016348172, "MEAN_MOTION_DOT": 2.93e-06, "MEAN_MOTION_DDOT": 0}, "tle": {"line1": "1 30107U 99025RL  25347.60437575  .00000293  00000+0  16348-3 0  9992", "line2": "2 30107  98.8472  44.5158 0126271 273.1441  85.5291 14.14422872975735"}}, "geometry": {"type": "Point", "coordinates": [42.78659027787824, 15.246078197656306]}}, {"type": "Feature", "properties": {"norad_id": 30108, "name": "FENGYUN 1C DEB", "group": "fengyun-1c-debris", "lat": -67.56524536174634, "lon": -4.210066370767086, "alt_km": 831.4561722470698, "timestamp": "2025-12-14T07:33:19.751383+00:00", "meta": {"OBJECT_NAME": "FENGYUN 1C DEB", "OBJECT_ID": "1999-025RM", "EPOCH": "2025-12-12T22:16:15.508992", "MEAN_MOTION": 14.17172811, "ECCENTRICITY": 0.0197584, "INCLINATION": 98.6601, "RA_OF_ASC_NODE": 332.7763, "ARG_OF_PERICENTER": 21.6324, "MEAN_ANOMALY": 39.9356, "EPHEMERIS_TYPE": 0, "CLASSIFICATION_TYPE": "U", "NORAD_CAT_ID": 30108, "ELEMENT_SET_NO": 999, "REV_AT_EPOCH": 97601, "BSTAR": 0.00057291272, "MEAN_MOTION_DOT": 1.355e-05, "MEAN_MOTION_DDOT": 0}, "tle": {"line1": "1 30108U 99025RM  25346.92795728  .00001355  00000+0  57291-3 0  9996", "line2": "2 30108  98.6601 332.7763 0197584  21.6324  39.9356 14.17172811976018"}}, "geometry": {"type": "Point", "coordinates": [-4.210066370767086, -67.56524536174634]}}, {"type": "Feature", "properties": {"norad_id": 30109, "name": "FENGYUN 1C DEB", "group": "fengyun-1c-debris", "lat": 45.43803830160446, "lon": -26.982288246419262, "alt_km": 950.3253546175738, "timestamp": "2025-12-14T07:33:19.751393+00:00", "meta": {"OBJECT_NAME": "FENGYUN 1C DEB", "OBJECT_ID": "1999-025RN", "EPOCH": "2025-12-13T11:35:54.497760", "MEAN_MOTION": 14.17551529, "ECCENTRICITY": 0.0167337, "INCLINATION": 98.508, "RA_OF_ASC_NODE": 340.9636, "ARG_OF_PERICENTER": 230.2307, "MEAN_ANOMALY": 254.7608, "EPHEMERIS_TYPE": 0, "CLASSIFICATION_TYPE": "U", "NORAD_CAT_ID": 30109, "ELEMENT_SET_NO": 999, "REV_AT_EPOCH": 97562, "BSTAR": 0.00055413375, "MEAN_MOTION_DOT": 1.249e-05, "MEAN_MOTION_DDOT": 0}, "tle": {"line1": "1 30109U 99025RN  25347.48326965  .00001249  00000+0  55413-3 0  9998", "line2": "2 30109  98.5080 340.9636 0167337 230.2307 254.7608 14.17551529975621"}}, "geometry": {"type": "Point", "coordinates": [-26.982288246419262, 45.43803830160446]}}]}